start=new Date('2021-12-28T00:00:00.000Z').valueOf();
sats=[{"MEAN_MOTION_DDOT":"0.0000000000000","ARG_OF_PERICENTER":"79.6627","RCS_SIZE":"LARGE","ECCENTRICITY":"0.00013790","TIME_SYSTEM":"UTC","BSTAR":"0.00020710000000","EPOCH":"2021-12-27T14:38:16.706976","OBJECT_TYPE":"PAYLOAD","PERIAPSIS":"546.285","SEMIMAJOR_AXIS":"6925.375","NORAD_CAT_ID":"48373","MEAN_ANOMALY":"280.4517","CENTER_NAME":"EARTH","COUNTRY_CODE":"US","INCLINATION":"53.0562","EPHEMERIS_TYPE":"0","APOAPSIS":"548.195","TLE_LINE1":"1 48373U 21038W   21361.60991559  .00002804  00000-0  20710-3 0  9993","REV_AT_EPOCH":"3609","RA_OF_ASC_NODE":"33.8934","MEAN_MOTION":"15.06391293","OBJECT_ID":"2021-038W","OBJECT_NAME":"STARLINK-2609","DECAY_DATE":null,"MEAN_ELEMENT_THEORY":"SGP4","REF_FRAME":"TEME","FILE":"3253114","MEAN_MOTION_DOT":"0.00002804","TLE_LINE2":"2 48373  53.0562  33.8934 0001379  79.6627 280.4517 15.06391293 36099","PERIOD":"95.593","CLASSIFICATION_TYPE":"U","SITE":"AFETR","ELEMENT_SET_NO":"999","GP_ID":"192604596","LAUNCH_DATE":"2021-05-04"},{"INCLINATION":"53.0563","COUNTRY_CODE":"US","CENTER_NAME":"EARTH","APOAPSIS":"548.222","EPHEMERIS_TYPE":"0","RA_OF_ASC_NODE":"34.7888","TLE_LINE1":"1 48374U 21038X   21361.40718716  .00003467  00000-0  25149-3 0  9991","REV_AT_EPOCH":"3606","OBJECT_ID":"2021-038X","MEAN_MOTION":"15.06401565","OBJECT_NAME":"STARLINK-2604","ARG_OF_PERICENTER":"68.3517","MEAN_MOTION_DDOT":"0.0000000000000","ECCENTRICITY":"0.00014630","RCS_SIZE":"LARGE","BSTAR":"0.00025149000000","TIME_SYSTEM":"UTC","EPOCH":"2021-12-27T09:46:20.970624","OBJECT_TYPE":"PAYLOAD","PERIAPSIS":"546.196","SEMIMAJOR_AXIS":"6925.344","MEAN_ANOMALY":"291.7628","NORAD_CAT_ID":"48374","MEAN_MOTION_DOT":"0.00003467","TLE_LINE2":"2 48374  53.0563  34.7888 0001463  68.3517 291.7628 15.06401565 36065","CLASSIFICATION_TYPE":"U","PERIOD":"95.592","ELEMENT_SET_NO":"999","SITE":"AFETR","GP_ID":"192569860","LAUNCH_DATE":"2021-05-04","REF_FRAME":"TEME","MEAN_ELEMENT_THEORY":"SGP4","DECAY_DATE":null,"FILE":"3252683"},{"OBJECT_NAME":"STARLINK-2603","MEAN_MOTION":"15.06390447","OBJECT_ID":"2021-038Y","REV_AT_EPOCH":"3607","TLE_LINE1":"1 48375U 21038Y   21361.46984985  .00002853  00000-0  21040-3 0  9995","RA_OF_ASC_NODE":"34.5166","EPHEMERIS_TYPE":"0","APOAPSIS":"548.181","INCLINATION":"53.0548","CENTER_NAME":"EARTH","COUNTRY_CODE":"US","SEMIMAJOR_AXIS":"6925.378","NORAD_CAT_ID":"48375","MEAN_ANOMALY":"284.7060","OBJECT_TYPE":"PAYLOAD","PERIAPSIS":"546.305","EPOCH":"2021-12-27T11:16:35.027040","TIME_SYSTEM":"UTC","BSTAR":"0.00021040000000","ECCENTRICITY":"0.00013540","RCS_SIZE":"LARGE","MEAN_MOTION_DDOT":"0.0000000000000","ARG_OF_PERICENTER":"75.4079","LAUNCH_DATE":"2021-05-04","GP_ID":"192569610","ELEMENT_SET_NO":"999","SITE":"AFETR","CLASSIFICATION_TYPE":"U","PERIOD":"95.593","TLE_LINE2":"2 48375  53.0548  34.5166 0001354  75.4079 284.7060 15.06390447 36076","MEAN_MOTION_DOT":"0.00002853","FILE":"3252683","REF_FRAME":"TEME","MEAN_ELEMENT_THEORY":"SGP4","DECAY_DATE":null},{"MEAN_MOTION_DDOT":"0.0000000000000","ARG_OF_PERICENTER":"67.0911","ECCENTRICITY":"0.00015830","RCS_SIZE":"LARGE","TIME_SYSTEM":"UTC","BSTAR":"-0.00007862600000","EPOCH":"2021-12-27T11:11:15.575136","OBJECT_TYPE":"PAYLOAD","PERIAPSIS":"546.156","SEMIMAJOR_AXIS":"6925.387","MEAN_ANOMALY":"293.0245","NORAD_CAT_ID":"48376","INCLINATION":"53.0555","COUNTRY_CODE":"US","CENTER_NAME":"EARTH","EPHEMERIS_TYPE":"0","APOAPSIS":"548.349","REV_AT_EPOCH":"3607","TLE_LINE1":"1 48376U 21038Z   21361.46615249 -.00001452  00000-0 -78626-4 0  9999","RA_OF_ASC_NODE":"34.5376","OBJECT_ID":"2021-038Z","MEAN_MOTION":"15.06387366","OBJECT_NAME":"STARLINK-2610","REF_FRAME":"TEME","MEAN_ELEMENT_THEORY":"SGP4","DECAY_DATE":null,"FILE":"3252683","MEAN_MOTION_DOT":"-0.00001452","TLE_LINE2":"2 48376  53.0555  34.5376 0001583  67.0911 293.0245 15.06387366 36078","CLASSIFICATION_TYPE":"U","PERIOD":"95.593","SITE":"AFETR","ELEMENT_SET_NO":"999","GP_ID":"192568859","LAUNCH_DATE":"2021-05-04"},{"PERIOD":"95.592","CLASSIFICATION_TYPE":"U","SITE":"AFETR","ELEMENT_SET_NO":"999","MEAN_MOTION_DOT":"-0.00000431","TLE_LINE2":"2 48377  53.0561  34.2459 0001466  73.3129 286.8020 15.06395714 36084","LAUNCH_DATE":"2021-05-04","GP_ID":"192569109","MEAN_ELEMENT_THEORY":"SGP4","DECAY_DATE":null,"REF_FRAME":"TEME","FILE":"3252683","RA_OF_ASC_NODE":"34.2459","TLE_LINE1":"1 48377U 21038AA  21361.52882041 -.00000431  00000-0 -10055-4 0  9991","REV_AT_EPOCH":"3608","COUNTRY_CODE":"US","CENTER_NAME":"EARTH","INCLINATION":"53.0561","APOAPSIS":"548.242","EPHEMERIS_TYPE":"0","OBJECT_NAME":"STARLINK-2499","MEAN_MOTION":"15.06395714","OBJECT_ID":"2021-038AA","RCS_SIZE":"LARGE","ECCENTRICITY":"0.00014660","BSTAR":"-0.00001005500000","TIME_SYSTEM":"UTC","ARG_OF_PERICENTER":"73.3129","MEAN_MOTION_DDOT":"0.0000000000000","NORAD_CAT_ID":"48377","SEMIMAJOR_AXIS":"6925.362","MEAN_ANOMALY":"286.8020","EPOCH":"2021-12-27T12:41:30.083424","OBJECT_TYPE":"PAYLOAD","PERIAPSIS":"546.211"},{"RCS_SIZE":"LARGE","ECCENTRICITY":"0.00013900","TIME_SYSTEM":"UTC","BSTAR":"0.00006528100000","ARG_OF_PERICENTER":"76.5507","MEAN_MOTION_DDOT":"0.0000000000000","MEAN_ANOMALY":"283.5637","SEMIMAJOR_AXIS":"6925.384","NORAD_CAT_ID":"48378","EPOCH":"2021-12-27T18:58:20.921088","OBJECT_TYPE":"PAYLOAD","PERIAPSIS":"546.286","TLE_LINE1":"1 48378U 21038AB  21361.79051992  .00000691  00000-0  65281-4 0  9991","REV_AT_EPOCH":"3612","RA_OF_ASC_NODE":"33.0810","COUNTRY_CODE":"US","CENTER_NAME":"EARTH","INCLINATION":"53.0553","APOAPSIS":"548.212","EPHEMERIS_TYPE":"0","OBJECT_NAME":"STARLINK-2526","OBJECT_ID":"2021-038AB","MEAN_MOTION":"15.06388404","DECAY_DATE":null,"MEAN_ELEMENT_THEORY":"SGP4","REF_FRAME":"TEME","FILE":"3253114","PERIOD":"95.593","CLASSIFICATION_TYPE":"U","ELEMENT_SET_NO":"999","SITE":"AFETR","MEAN_MOTION_DOT":"0.00000691","TLE_LINE2":"2 48378  53.0553  33.0810 0001390  76.5507 283.5637 15.06388404 36126","LAUNCH_DATE":"2021-05-04","GP_ID":"192603353"},{"SEMIMAJOR_AXIS":"6925.368","MEAN_ANOMALY":"285.4172","NORAD_CAT_ID":"48379","EPOCH":"2021-12-27T18:53:02.575968","PERIAPSIS":"546.366","OBJECT_TYPE":"PAYLOAD","RCS_SIZE":"MEDIUM","ECCENTRICITY":"0.00012520","BSTAR":"0.00005299700000","TIME_SYSTEM":"UTC","MEAN_MOTION_DDOT":"0.0000000000000","ARG_OF_PERICENTER":"74.6955","OBJECT_NAME":"STARLINK-2612","MEAN_MOTION":"15.06393764","OBJECT_ID":"2021-038AC","TLE_LINE1":"1 48379U 21038AC  21361.78683537  .00000508  00000-0  52997-4 0  9994","RA_OF_ASC_NODE":"33.0908","REV_AT_EPOCH":"3612","CENTER_NAME":"EARTH","COUNTRY_CODE":"US","INCLINATION":"53.0558","EPHEMERIS_TYPE":"0","APOAPSIS":"548.100","DECAY_DATE":null,"MEAN_ELEMENT_THEORY":"SGP4","REF_FRAME":"TEME","FILE":"3253114","LAUNCH_DATE":"2021-05-04","GP_ID":"192604102","CLASSIFICATION_TYPE":"U","PERIOD":"95.593","ELEMENT_SET_NO":"999","SITE":"AFETR","MEAN_MOTION_DOT":"0.00000508","TLE_LINE2":"2 48379  53.0558  33.0908 0001252  74.6955 285.4172 15.06393764 36123"},{"INCLINATION":"53.0560","COUNTRY_CODE":"US","CENTER_NAME":"EARTH","EPHEMERIS_TYPE":"0","APOAPSIS":"548.196","RA_OF_ASC_NODE":"33.8658","TLE_LINE1":"1 48380U 21038AD  21361.61264918  .00001674  00000-0  13127-3 0  9992","REV_AT_EPOCH":"3609","MEAN_MOTION":"15.06395289","OBJECT_ID":"2021-038AD","OBJECT_NAME":"STARLINK-2614","MEAN_MOTION_DDOT":"0.0000000000000","ARG_OF_PERICENTER":"81.8448","ECCENTRICITY":"0.00013980","RCS_SIZE":"LARGE","TIME_SYSTEM":"UTC","BSTAR":"0.00013127000000","EPOCH":"2021-12-27T14:42:12.889152","OBJECT_TYPE":"PAYLOAD","PERIAPSIS":"546.260","NORAD_CAT_ID":"48380","SEMIMAJOR_AXIS":"6925.363","MEAN_ANOMALY":"278.2700","MEAN_MOTION_DOT":"0.00001674","TLE_LINE2":"2 48380  53.0560  33.8658 0001398  81.8448 278.2700 15.06395289 36093","CLASSIFICATION_TYPE":"U","PERIOD":"95.592","SITE":"AFETR","ELEMENT_SET_NO":"999","GP_ID":"192604850","LAUNCH_DATE":"2021-05-04","REF_FRAME":"TEME","MEAN_ELEMENT_THEORY":"SGP4","DECAY_DATE":null,"FILE":"3253114"},{"REF_FRAME":"TEME","MEAN_ELEMENT_THEORY":"SGP4","DECAY_DATE":null,"FILE":"3253114","MEAN_MOTION_DOT":"0.00000645","TLE_LINE2":"2 48381  53.0561  33.1129 0001375  65.4626 294.6506 15.06387325 36124","PERIOD":"95.593","CLASSIFICATION_TYPE":"U","ELEMENT_SET_NO":"999","SITE":"AFETR","GP_ID":"192604597","LAUNCH_DATE":"2021-05-04","MEAN_MOTION_DDOT":"0.0000000000000","ARG_OF_PERICENTER":"65.4626","ECCENTRICITY":"0.00013750","RCS_SIZE":"LARGE","BSTAR":"0.00006219700000","TIME_SYSTEM":"UTC","EPOCH":"2021-12-27T18:47:44.736288","PERIAPSIS":"546.300","OBJECT_TYPE":"PAYLOAD","MEAN_ANOMALY":"294.6506","SEMIMAJOR_AXIS":"6925.387","NORAD_CAT_ID":"48381","INCLINATION":"53.0561","COUNTRY_CODE":"US","CENTER_NAME":"EARTH","EPHEMERIS_TYPE":"0","APOAPSIS":"548.205","TLE_LINE1":"1 48381U 21038AE  21361.78315667  .00000645  00000-0  62197-4 0  9998","REV_AT_EPOCH":"3612","RA_OF_ASC_NODE":"33.1129","OBJECT_ID":"2021-038AE","MEAN_MOTION":"15.06387325","OBJECT_NAME":"STARLINK-2630"},{"FILE":"3253114","REF_FRAME":"TEME","DECAY_DATE":null,"MEAN_ELEMENT_THEORY":"SGP4","GP_ID":"192603854","LAUNCH_DATE":"2021-05-04","TLE_LINE2":"2 48382  53.0559  34.0121 0001468  56.1732 303.9396 15.06398397 36090","MEAN_MOTION_DOT":"0.00000190","SITE":"AFETR","ELEMENT_SET_NO":"999","CLASSIFICATION_TYPE":"U","PERIOD":"95.592","PERIAPSIS":"546.202","OBJECT_TYPE":"PAYLOAD","EPOCH":"2021-12-27T13:55:48.813312","SEMIMAJOR_AXIS":"6925.353","MEAN_ANOMALY":"303.9396","NORAD_CAT_ID":"48382","ARG_OF_PERICENTER":"56.1732","MEAN_MOTION_DDOT":"0.0000000000000","BSTAR":"0.00003166500000","TIME_SYSTEM":"UTC","ECCENTRICITY":"0.00014680","RCS_SIZE":"LARGE","MEAN_MOTION":"15.06398397","OBJECT_ID":"2021-038AF","OBJECT_NAME":"STARLINK-2585","EPHEMERIS_TYPE":"0","APOAPSIS":"548.235","INCLINATION":"53.0559","CENTER_NAME":"EARTH","COUNTRY_CODE":"US","TLE_LINE1":"1 48382U 21038AF  21361.58042608  .00000190  00000-0  31665-4 0  9990","RA_OF_ASC_NODE":"34.0121","REV_AT_EPOCH":"3609"}];
